<?xml version="1.0" encoding="UTF-8"?>
<kml xmlns="http://www.opengis.net/kml/2.2">
  <Document>
    <name>Directions from Galaxidi to Pavliani</name>
    <Style id="icon-1899-DB4436-nodesc-normal">
      <IconStyle>
        <color>ff3644db</color>
        <scale>1</scale>
        <Icon>
          <href>https://www.gstatic.com/mapspro/images/stock/503-wht-blank_maps.png</href>
        </Icon>
        <hotSpot x="32" xunits="pixels" y="64" yunits="insetPixels"/>
      </IconStyle>
      <LabelStyle>
        <scale>0</scale>
      </LabelStyle>
      <BalloonStyle>
        <text><![CDATA[<h3>$[name]</h3>]]></text>
      </BalloonStyle>
    </Style>
    <Style id="icon-1899-DB4436-nodesc-highlight">
      <IconStyle>
        <color>ff3644db</color>
        <scale>1</scale>
        <Icon>
          <href>https://www.gstatic.com/mapspro/images/stock/503-wht-blank_maps.png</href>
        </Icon>
        <hotSpot x="32" xunits="pixels" y="64" yunits="insetPixels"/>
      </IconStyle>
      <LabelStyle>
        <scale>1</scale>
      </LabelStyle>
      <BalloonStyle>
        <text><![CDATA[<h3>$[name]</h3>]]></text>
      </BalloonStyle>
    </Style>
    <StyleMap id="icon-1899-DB4436-nodesc">
      <Pair>
        <key>normal</key>
        <styleUrl>#icon-1899-DB4436-nodesc-normal</styleUrl>
      </Pair>
      <Pair>
        <key>highlight</key>
        <styleUrl>#icon-1899-DB4436-nodesc-highlight</styleUrl>
      </Pair>
    </StyleMap>
    <Style id="line-1267FF-5000-nodesc-normal">
      <LineStyle>
        <color>ffff6712</color>
        <width>5</width>
      </LineStyle>
      <BalloonStyle>
        <text><![CDATA[<h3>$[name]</h3>]]></text>
      </BalloonStyle>
    </Style>
    <Style id="line-1267FF-5000-nodesc-highlight">
      <LineStyle>
        <color>ffff6712</color>
        <width>7.5</width>
      </LineStyle>
      <BalloonStyle>
        <text><![CDATA[<h3>$[name]</h3>]]></text>
      </BalloonStyle>
    </Style>
    <StyleMap id="line-1267FF-5000-nodesc">
      <Pair>
        <key>normal</key>
        <styleUrl>#line-1267FF-5000-nodesc-normal</styleUrl>
      </Pair>
      <Pair>
        <key>highlight</key>
        <styleUrl>#line-1267FF-5000-nodesc-highlight</styleUrl>
      </Pair>
    </StyleMap>
    <Placemark>
      <name>Directions from Galaxidi to Pavliani</name>
      <styleUrl>#line-1267FF-5000-nodesc</styleUrl>
      <LineString>
        <tessellate>1</tessellate>
        <coordinates>
          22.38317,38.37734,0
          22.38308,38.37724,0
          22.38305,38.3772,0
          22.38228,38.37763,0
          22.38207,38.37787,0
          22.38196,38.37795,0
          22.38195,38.37795,0
          22.3815,38.37828,0
          22.38107,38.37852,0
          22.38102,38.37856,0
          22.38087,38.37862,0
          22.38075,38.37869,0
          22.3806,38.37875,0
          22.37958,38.3793,0
          22.37944,38.3794,0
          22.37933,38.37954,0
          22.37878,38.38038,0
          22.3784,38.38108,0
          22.37839,38.38111,0
          22.37829,38.38127,0
          22.37811,38.3816,0
          22.3781,38.3816,0
          22.37778,38.38219,0
          22.37738,38.38312,0
          22.37738,38.38313,0
          22.37709,38.38372,0
          22.37687,38.38422,0
          22.37669,38.38458,0
          22.37658,38.38473,0
          22.37651,38.38481,0
          22.37633,38.38506,0
          22.37557,38.38583,0
          22.37531,38.38606,0
          22.3751,38.38627,0
          22.37485,38.38646,0
          22.37483,38.38648,0
          22.37432,38.38689,0
          22.3742,38.38697,0
          22.37415,38.38701,0
          22.37406,38.38706,0
          22.37401,38.38707,0
          22.37378,38.38709,0
          22.37325,38.38807,0
          22.37324,38.38808,0
          22.3727,38.38915,0
          22.3726,38.38939,0
          22.37247,38.38977,0
          22.37247,38.38979,0
          22.37244,38.38997,0
          22.37243,38.38999,0
          22.3724,38.39033,0
          22.37243,38.39086,0
          22.37251,38.39122,0
          22.37253,38.39127,0
          22.37258,38.39145,0
          22.37261,38.39153,0
          22.37273,38.39179,0
          22.37275,38.39186,0
          22.37284,38.39202,0
          22.37291,38.39212,0
          22.37416,38.39369,0
          22.37454,38.39414,0
          22.37478,38.39445,0
          22.37495,38.39464,0
          22.37519,38.39495,0
          22.37658,38.3966,0
          22.37707,38.39721,0
          22.37709,38.39723,0
          22.37733,38.39753,0
          22.37765,38.3979,0
          22.37927,38.3999,0
          22.3793,38.39995,0
          22.3799,38.40071,0
          22.38038,38.40127,0
          22.38204,38.40333,0
          22.38205,38.40335,0
          22.38282,38.40427,0
          22.38286,38.40431,0
          22.38306,38.40458,0
          22.38343,38.40504,0
          22.38347,38.4051,0
          22.38369,38.40537,0
          22.38376,38.40543,0
          22.3839,38.40557,0
          22.38397,38.40563,0
          22.38406,38.40569,0
          22.38417,38.40575,0
          22.38426,38.40578,0
          22.38463,38.40586,0
          22.3854,38.40589,0
          22.38543,38.4059,0
          22.38562,38.40592,0
          22.38584,38.40597,0
          22.38615,38.40611,0
          22.38624,38.40617,0
          22.38626,38.40618,0
          22.38659,38.40643,0
          22.38693,38.40671,0
          22.38721,38.40692,0
          22.38736,38.40705,0
          22.388,38.40755,0
          22.38802,38.40756,0
          22.38814,38.40766,0
          22.38816,38.40767,0
          22.38825,38.40774,0
          22.38836,38.40781,0
          22.38844,38.40785,0
          22.38852,38.40788,0
          22.38856,38.4079,0
          22.38873,38.40794,0
          22.38893,38.40796,0
          22.38941,38.40794,0
          22.38978,38.40791,0
          22.38997,38.40791,0
          22.3902,38.40793,0
          22.39052,38.40803,0
          22.39082,38.40816,0
          22.39103,38.40827,0
          22.39127,38.40838,0
          22.39142,38.40846,0
          22.39161,38.40859,0
          22.39163,38.4086,0
          22.39171,38.40868,0
          22.39176,38.40872,0
          22.39192,38.40887,0
          22.39192,38.40888,0
          22.39206,38.40902,0
          22.39219,38.40917,0
          22.39233,38.40931,0
          22.39286,38.4099,0
          22.39311,38.41016,0
          22.39313,38.41019,0
          22.39377,38.41087,0
          22.39394,38.41109,0
          22.39401,38.41123,0
          22.39403,38.41133,0
          22.39403,38.41141,0
          22.39401,38.41154,0
          22.39399,38.41158,0
          22.39394,38.41176,0
          22.39382,38.41211,0
          22.39381,38.41213,0
          22.3938,38.41231,0
          22.39384,38.41245,0
          22.39384,38.41246,0
          22.3939,38.41253,0
          22.39398,38.41261,0
          22.39417,38.4127,0
          22.39418,38.41271,0
          22.39432,38.41275,0
          22.39461,38.41279,0
          22.39477,38.4128,0
          22.39497,38.4128,0
          22.39515,38.41277,0
          22.39538,38.4127,0
          22.39547,38.41265,0
          22.39548,38.41264,0
          22.39557,38.41258,0
          22.39566,38.41249,0
          22.39572,38.41241,0
          22.39584,38.41218,0
          22.39594,38.41188,0
          22.39596,38.41184,0
          22.39596,38.41183,0
          22.39617,38.41124,0
          22.39625,38.41107,0
          22.39634,38.41091,0
          22.39635,38.41091,0
          22.39642,38.4108,0
          22.39651,38.41071,0
          22.39664,38.4106,0
          22.39685,38.41046,0
          22.39717,38.41032,0
          22.39743,38.41024,0
          22.39765,38.4102,0
          22.39767,38.41019,0
          22.39786,38.41015,0
          22.39789,38.41015,0
          22.39856,38.41001,0
          22.39937,38.40987,0
          22.39945,38.40985,0
          22.39961,38.40983,0
          22.39968,38.40983,0
          22.39981,38.40981,0
          22.40036,38.40981,0
          22.40095,38.40985,0
          22.40105,38.40987,0
          22.40237,38.41005,0
          22.40241,38.41005,0
          22.40256,38.41007,0
          22.40258,38.41008,0
          22.40263,38.41008,0
          22.4035,38.41022,0
          22.40353,38.41022,0
          22.40387,38.41029,0
          22.40397,38.41033,0
          22.40417,38.41039,0
          22.40418,38.41039,0
          22.40444,38.4105,0
          22.40477,38.41066,0
          22.40478,38.41066,0
          22.40514,38.41088,0
          22.40565,38.41123,0
          22.4058,38.41135,0
          22.40583,38.41136,0
          22.406,38.41148,0
          22.40605,38.41153,0
          22.40633,38.41173,0
          22.40656,38.41191,0
          22.40679,38.41213,0
          22.40695,38.41233,0
          22.40701,38.41245,0
          22.40707,38.41254,0
          22.40714,38.41271,0
          22.4072,38.41293,0
          22.4072,38.41296,0
          22.40723,38.41312,0
          22.40723,38.41314,0
          22.40732,38.4138,0
          22.40732,38.41385,0
          22.40733,38.41386,0
          22.40734,38.41401,0
          22.40735,38.41404,0
          22.40736,38.41419,0
          22.40737,38.41421,0
          22.40744,38.41489,0
          22.40745,38.41493,0
          22.40746,38.41505,0
          22.40749,38.41523,0
          22.40749,38.41529,0
          22.40752,38.41547,0
          22.40758,38.41601,0
          22.40761,38.41618,0
          22.40771,38.4172,0
          22.4077,38.41787,0
          22.40769,38.41798,0
          22.40769,38.41816,0
          22.40767,38.41852,0
          22.40767,38.4187,0
          22.40765,38.41907,0
          22.40765,38.41925,0
          22.40763,38.41961,0
          22.40763,38.41979,0
          22.4076,38.42033,0
          22.4076,38.42051,0
          22.40757,38.42104,0
          22.40757,38.42122,0
          22.40755,38.42159,0
          22.40755,38.42177,0
          22.40753,38.42213,0
          22.40753,38.42231,0
          22.40751,38.42266,0
          22.40751,38.42284,0
          22.40749,38.42325,0
          22.40741,38.42393,0
          22.40722,38.42475,0
          22.40715,38.42498,0
          22.40714,38.42503,0
          22.40708,38.42521,0
          22.40705,38.42534,0
          22.40703,38.42539,0
          22.40677,38.42631,0
          22.40674,38.42639,0
          22.40662,38.42684,0
          22.40633,38.42781,0
          22.40629,38.42797,0
          22.40629,38.42799,0
          22.40627,38.42806,0
          22.40626,38.42808,0
          22.40626,38.4281,0
          22.40623,38.42815,0
          22.40616,38.42832,0
          22.40605,38.42855,0
          22.40589,38.4288,0
          22.40571,38.42899,0
          22.40528,38.42931,0
          22.40478,38.42963,0
          22.40474,38.42965,0
          22.40469,38.42969,0
          22.40458,38.42975,0
          22.40407,38.43007,0
          22.40406,38.43008,0
          22.40388,38.4302,0
          22.40379,38.43025,0
          22.4037,38.43031,0
          22.40356,38.43038,0
          22.4035,38.4304,0
          22.40337,38.43046,0
          22.40319,38.43049,0
          22.40314,38.43049,0
          22.40304,38.4305,0
          22.40291,38.43049,0
          22.40269,38.43045,0
          22.40247,38.43039,0
          22.4024,38.43036,0
          22.4022,38.4303,0
          22.40199,38.43022,0
          22.40187,38.43013,0
          22.40183,38.43011,0
          22.40171,38.43,0
          22.40165,38.42991,0
          22.4016,38.42979,0
          22.40148,38.42916,0
          22.40146,38.42913,0
          22.40141,38.42903,0
          22.40136,38.42898,0
          22.40135,38.42898,0
          22.4013,38.42893,0
          22.40116,38.42888,0
          22.40112,38.42887,0
          22.40094,38.42889,0
          22.40074,38.42896,0
          22.40073,38.42897,0
          22.40071,38.42897,0
          22.39986,38.42944,0
          22.39978,38.4295,0
          22.39976,38.4295,0
          22.3997,38.42956,0
          22.39963,38.42965,0
          22.39959,38.42975,0
          22.39959,38.42993,0
          22.39962,38.42999,0
          22.39968,38.43014,0
          22.40006,38.43082,0
          22.40012,38.43099,0
          22.40013,38.43118,0
          22.40008,38.43133,0
          22.40007,38.43134,0
          22.4,38.43145,0
          22.39989,38.43155,0
          22.39976,38.43164,0
          22.39971,38.43166,0
          22.39948,38.43172,0
          22.39944,38.43172,0
          22.39927,38.43174,0
          22.39897,38.43173,0
          22.39883,38.43174,0
          22.3987,38.43174,0
          22.39852,38.43176,0
          22.39832,38.4318,0
          22.3983,38.43181,0
          22.39823,38.43183,0
          22.39808,38.43193,0
          22.39802,38.432,0
          22.39794,38.43213,0
          22.39792,38.43223,0
          22.39791,38.43236,0
          22.39792,38.4324,0
          22.39792,38.43243,0
          22.39798,38.4326,0
          22.39806,38.43288,0
          22.3981,38.43295,0
          22.39818,38.43314,0
          22.39827,38.43328,0
          22.39836,38.4334,0
          22.39855,38.43355,0
          22.39904,38.43384,0
          22.39919,38.43396,0
          22.39927,38.43401,0
          22.39942,38.43415,0
          22.39943,38.43415,0
          22.3995,38.43421,0
          22.39956,38.43429,0
          22.39968,38.43448,0
          22.39978,38.4347,0
          22.3998,38.43478,0
          22.39981,38.43479,0
          22.39981,38.4348,0
          22.39986,38.43497,0
          22.39992,38.43513,0
          22.39992,38.43514,0
          22.40008,38.43567,0
          22.40011,38.43574,0
          22.40013,38.43583,0
          22.40014,38.43585,0
          22.40019,38.43601,0
          22.40019,38.43602,0
          22.40026,38.43636,0
          22.40027,38.43638,0
          22.40029,38.43651,0
          22.40029,38.43683,0
          22.40024,38.43725,0
          22.40024,38.43728,0
          22.40019,38.43774,0
          22.40018,38.43779,0
          22.40018,38.43782,0
          22.40011,38.43833,0
          22.40011,38.43836,0
          22.40008,38.43852,0
          22.40007,38.43854,0
          22.40002,38.4387,0
          22.40002,38.43872,0
          22.39994,38.43889,0
          22.39942,38.4397,0
          22.39936,38.43982,0
          22.39933,38.43992,0
          22.39931,38.44003,0
          22.39932,38.44006,0
          22.39932,38.4401,0
          22.39935,38.44024,0
          22.39936,38.44025,0
          22.39967,38.44091,0
          22.3997,38.44096,0
          22.39989,38.44139,0
          22.39989,38.44142,0
          22.39992,38.4416,0
          22.39993,38.44163,0
          22.39993,38.44169,0
          22.39992,38.44178,0
          22.39992,38.44182,0
          22.39989,38.44196,0
          22.39988,38.44198,0
          22.39978,38.44228,0
          22.39976,38.44231,0
          22.39956,38.44283,0
          22.39948,38.443,0
          22.39947,38.44301,0
          22.39936,38.4432,0
          22.39925,38.44331,0
          22.39918,38.44339,0
          22.3991,38.44345,0
          22.39862,38.44374,0
          22.39861,38.44376,0
          22.39857,38.44378,0
          22.39856,38.44379,0
          22.39851,38.44382,0
          22.39846,38.44384,0
          22.39821,38.444,0
          22.3982,38.444,0
          22.39809,38.44414,0
          22.39802,38.44427,0
          22.39797,38.44442,0
          22.39797,38.4446,0
          22.39799,38.44464,0
          22.39804,38.44481,0
          22.39814,38.44497,0
          22.39836,38.44528,0
          22.39842,38.44535,0
          22.39842,38.44536,0
          22.39866,38.44581,0
          22.39868,38.44595,0
          22.39869,38.44599,0
          22.39869,38.44612,0
          22.39864,38.44662,0
          22.39863,38.44667,0
          22.39858,38.44709,0
          22.39858,38.44714,0
          22.39856,38.44735,0
          22.39855,38.44739,0
          22.3985,38.44781,0
          22.3985,38.44784,0
          22.39845,38.44828,0
          22.39845,38.44836,0
          22.39843,38.44854,0
          22.3984,38.44917,0
          22.39845,38.44935,0
          22.39847,38.44938,0
          22.3985,38.44946,0
          22.39852,38.4495,0
          22.39854,38.44951,0
          22.3986,38.44959,0
          22.39872,38.44971,0
          22.39901,38.44988,0
          22.39936,38.45003,0
          22.39943,38.45005,0
          22.39976,38.45018,0
          22.39983,38.4502,0
          22.39985,38.45021,0
          22.40046,38.45043,0
          22.40047,38.45044,0
          22.40051,38.45045,0
          22.40089,38.45059,0
          22.4009,38.45059,0
          22.4013,38.45075,0
          22.40164,38.45086,0
          22.40188,38.45092,0
          22.40213,38.45096,0
          22.40252,38.45099,0
          22.40293,38.45097,0
          22.40321,38.45091,0
          22.40337,38.45086,0
          22.40339,38.45086,0
          22.40358,38.45079,0
          22.40377,38.45069,0
          22.40405,38.45052,0
          22.40424,38.45037,0
          22.40428,38.45033,0
          22.40439,38.45019,0
          22.40455,38.45001,0
          22.40463,38.44987,0
          22.40464,38.44984,0
          22.40467,38.4498,0
          22.40477,38.44953,0
          22.40479,38.44949,0
          22.40483,38.44935,0
          22.40483,38.44932,0
          22.40526,38.44777,0
          22.4053,38.44759,0
          22.4054,38.44724,0
          22.4054,38.44721,0
          22.40564,38.44636,0
          22.40589,38.44568,0
          22.4059,38.44567,0
          22.40609,38.44539,0
          22.40724,38.44448,0
          22.40726,38.44447,0
          22.40742,38.44434,0
          22.4076,38.44423,0
          22.40811,38.44395,0
          22.40837,38.44387,0
          22.40876,38.44384,0
          22.40907,38.44387,0
          22.40959,38.44396,0
          22.40981,38.44401,0
          22.40995,38.44403,0
          22.41074,38.44431,0
          22.41087,38.44438,0
          22.41099,38.44446,0
          22.41112,38.44458,0
          22.41122,38.44472,0
          22.41123,38.44473,0
          22.41141,38.44506,0
          22.41149,38.44523,0
          22.4117,38.44562,0
          22.41178,38.44572,0
          22.41179,38.44574,0
          22.41192,38.44586,0
          22.41209,38.44598,0
          22.41212,38.44601,0
          22.41266,38.44635,0
          22.41283,38.44647,0
          22.41349,38.44688,0
          22.4135,38.44689,0
          22.41447,38.44751,0
          22.41448,38.44752,0
          22.4148,38.44775,0
          22.41481,38.44776,0
          22.41533,38.44815,0
          22.41537,38.44819,0
          22.41541,38.44822,0
          22.41543,38.44823,0
          22.41641,38.44899,0
          22.41662,38.44914,0
          22.41693,38.44929,0
          22.41719,38.44934,0
          22.41744,38.44934,0
          22.41756,38.44932,0
          22.41757,38.44931,0
          22.41762,38.4493,0
          22.41765,38.4493,0
          22.41785,38.44922,0
          22.41786,38.44922,0
          22.41803,38.44911,0
          22.41818,38.44897,0
          22.41826,38.4488,0
          22.41828,38.44877,0
          22.4183,38.44856,0
          22.41829,38.44851,0
          22.41829,38.44845,0
          22.41828,38.44835,0
          22.41825,38.44828,0
          22.41825,38.44827,0
          22.41813,38.44797,0
          22.4181,38.44787,0
          22.41793,38.44745,0
          22.41785,38.44728,0
          22.41777,38.44708,0
          22.41771,38.44676,0
          22.41772,38.44635,0
          22.41791,38.44548,0
          22.41792,38.44546,0
          22.418,38.44502,0
          22.41797,38.44457,0
          22.41786,38.44421,0
          22.41772,38.44384,0
          22.41768,38.44368,0
          22.41765,38.44359,0
          22.41764,38.4433,0
          22.41776,38.44294,0
          22.41808,38.44239,0
          22.41858,38.4416,0
          22.41884,38.44134,0
          22.41894,38.44128,0
          22.41896,38.44126,0
          22.41945,38.44094,0
          22.42004,38.4406,0
          22.42039,38.44036,0
          22.42057,38.44025,0
          22.4209,38.44,0
          22.42104,38.43986,0
          22.42106,38.43985,0
          22.4216,38.43932,0
          22.42169,38.43922,0
          22.42192,38.43901,0
          22.42213,38.4388,0
          22.42222,38.43872,0
          22.42247,38.43846,0
          22.42268,38.43827,0
          22.42294,38.43801,0
          22.42299,38.43795,0
          22.42318,38.43777,0
          22.42323,38.43773,0
          22.42336,38.4376,0
          22.42351,38.43747,0
          22.42351,38.43746,0
          22.42357,38.43741,0
          22.42393,38.43705,0
          22.42395,38.43704,0
          22.42401,38.43698,0
          22.42403,38.43693,0
          22.42403,38.43692,0
          22.42405,38.43691,0
          22.42434,38.43663,0
          22.42439,38.43657,0
          22.42519,38.43582,0
          22.4254,38.43567,0
          22.4256,38.43557,0
          22.42561,38.43557,0
          22.42569,38.43553,0
          22.42591,38.43548,0
          22.42605,38.43547,0
          22.42618,38.43548,0
          22.42638,38.43548,0
          22.42649,38.43549,0
          22.42667,38.43552,0
          22.4272,38.43571,0
          22.42738,38.43582,0
          22.42757,38.43592,0
          22.42801,38.43619,0
          22.42811,38.43626,0
          22.42847,38.43648,0
          22.42864,38.4366,0
          22.42894,38.43679,0
          22.42899,38.43684,0
          22.43037,38.43768,0
          22.43059,38.43779,0
          22.43113,38.43813,0
          22.43148,38.43837,0
          22.43163,38.43851,0
          22.43177,38.43867,0
          22.43195,38.4389,0
          22.43204,38.43903,0
          22.43217,38.43926,0
          22.43218,38.43929,0
          22.43221,38.43934,0
          22.43226,38.43947,0
          22.43227,38.43948,0
          22.43238,38.43978,0
          22.43238,38.43981,0
          22.43242,38.43999,0
          22.43248,38.44016,0
          22.4325,38.4402,0
          22.43251,38.44024,0
          22.43285,38.44119,0
          22.43285,38.4412,0
          22.43291,38.44138,0
          22.43298,38.44155,0
          22.43428,38.44528,0
          22.43429,38.44529,0
          22.43528,38.4481,0
          22.43529,38.44812,0
          22.43547,38.44864,0
          22.43552,38.44881,0
          22.43553,38.44883,0
          22.4357,38.44959,0
          22.43574,38.44981,0
          22.43574,38.44983,0
          22.43591,38.45069,0
          22.43591,38.45072,0
          22.43605,38.4514,0
          22.43611,38.45176,0
          22.43615,38.45194,0
          22.43621,38.45229,0
          22.43625,38.45246,0
          22.43625,38.45251,0
          22.43627,38.45258,0
          22.4363,38.45274,0
          22.4363,38.45287,0
          22.43634,38.45307,0
          22.43634,38.45308,0
          22.43635,38.45309,0
          22.43638,38.45328,0
          22.43641,38.45338,0
          22.43642,38.45354,0
          22.4364,38.45366,0
          22.43636,38.45377,0
          22.43636,38.45378,0
          22.43627,38.45388,0
          22.43615,38.45396,0
          22.43562,38.45417,0
          22.43536,38.45426,0
          22.43498,38.45442,0
          22.4347,38.45459,0
          22.43434,38.45486,0
          22.43432,38.45487,0
          22.43403,38.45515,0
          22.43397,38.4552,0
          22.43377,38.45544,0
          22.43373,38.45547,0
          22.43359,38.45568,0
          22.43357,38.4557,0
          22.43347,38.45586,0
          22.43341,38.45594,0
          22.43316,38.45634,0
          22.43307,38.45651,0
          22.43295,38.4568,0
          22.43291,38.45686,0
          22.43285,38.45707,0
          22.4328,38.45729,0
          22.43276,38.45763,0
          22.43276,38.4577,0
          22.43275,38.45776,0
          22.43275,38.45808,0
          22.43276,38.45819,0
          22.43276,38.45837,0
          22.43279,38.45884,0
          22.43279,38.45902,0
          22.4328,38.4591,0
          22.43301,38.46296,0
          22.43301,38.46314,0
          22.43306,38.46404,0
          22.43306,38.46422,0
          22.4331,38.46494,0
          22.4331,38.46512,0
          22.43314,38.46584,0
          22.43314,38.46595,0
          22.43326,38.46811,0
          22.43326,38.46829,0
          22.43343,38.47136,0
          22.43343,38.47154,0
          22.43361,38.47482,0
          22.43361,38.475,0
          22.43375,38.47751,0
          22.43375,38.47769,0
          22.43377,38.47792,0
          22.43381,38.47876,0
          22.43383,38.47898,0
          22.43383,38.47911,0
          22.43384,38.47915,0
          22.43384,38.47925,0
          22.43385,38.47934,0
          22.43388,38.47947,0
          22.4339,38.47953,0
          22.43394,38.48047,0
          22.43393,38.4805,0
          22.43392,38.48055,0
          22.43388,38.48065,0
          22.43382,38.48075,0
          22.43379,38.48079,0
          22.4337,38.48088,0
          22.43367,38.4809,0
          22.43365,38.48092,0
          22.43359,38.48096,0
          22.4335,38.48101,0
          22.43346,38.48102,0
          22.43339,38.48105,0
          22.43332,38.48107,0
          22.43322,38.48111,0
          22.43257,38.48128,0
          22.43241,38.48133,0
          22.43199,38.48142,0
          22.42778,38.48276,0
          22.42756,38.48282,0
          22.42573,38.4834,0
          22.42551,38.48346,0
          22.4253,38.48353,0
          22.42508,38.48359,0
          22.42504,38.48361,0
          22.42347,38.48412,0
          22.42345,38.48413,0
          22.42305,38.48426,0
          22.42284,38.48434,0
          22.42276,38.48436,0
          22.42264,38.48442,0
          22.42243,38.4845,0
          22.42242,38.48451,0
          22.42225,38.48461,0
          22.42222,38.48462,0
          22.42179,38.48501,0
          22.42178,38.48501,0
          22.42123,38.48558,0
          22.4211,38.48573,0
          22.42099,38.48583,0
          22.41987,38.48699,0
          22.41987,38.487,0
          22.41806,38.48886,0
          22.41793,38.48901,0
          22.41569,38.49134,0
          22.41563,38.49144,0
          22.41527,38.49181,0
          22.41514,38.49196,0
          22.41402,38.49311,0
          22.41392,38.49317,0
          22.41371,38.49338,0
          22.41369,38.49341,0
          22.41365,38.49344,0
          22.41328,38.49382,0
          22.41325,38.49386,0
          22.4132,38.4939,0
          22.41055,38.49666,0
          22.41042,38.49681,0
          22.40987,38.49739,0
          22.40974,38.49754,0
          22.4096,38.49768,0
          22.40959,38.49768,0
          22.40946,38.49783,0
          22.40684,38.50054,0
          22.40671,38.50069,0
          22.40643,38.50097,0
          22.40642,38.50099,0
          22.40619,38.50122,0
          22.40616,38.50126,0
          22.40173,38.50584,0
          22.40158,38.50598,0
          22.40158,38.50599,0
          22.40068,38.50697,0
          22.39864,38.50903,0
          22.39852,38.50917,0
          22.39781,38.5099,0
          22.39778,38.50994,0
          22.39775,38.50996,0
          22.39633,38.51144,0
          22.39618,38.51158,0
          22.3959,38.51188,0
          22.39575,38.51202,0
          22.39519,38.51262,0
          22.3949,38.51291,0
          22.39418,38.51368,0
          22.39318,38.51466,0
          22.39237,38.51541,0
          22.39208,38.51565,0
          22.39184,38.51589,0
          22.39176,38.51596,0
          22.39142,38.51632,0
          22.39141,38.51634,0
          22.39094,38.51693,0
          22.39084,38.51707,0
          22.39083,38.51709,0
          22.39068,38.5173,0
          22.39009,38.51821,0
          22.38993,38.51841,0
          22.38971,38.51866,0
          22.38916,38.51923,0
          22.38914,38.51926,0
          22.38899,38.51941,0
          22.38851,38.51984,0
          22.38841,38.51991,0
          22.38808,38.52017,0
          22.38759,38.52051,0
          22.38757,38.52053,0
          22.38724,38.52078,0
          22.38709,38.52092,0
          22.38706,38.52094,0
          22.38694,38.52105,0
          22.38692,38.52111,0
          22.38684,38.52121,0
          22.38673,38.52137,0
          22.38666,38.52145,0
          22.38661,38.52153,0
          22.38659,38.52155,0
          22.38646,38.52179,0
          22.38636,38.52202,0
          22.38629,38.52222,0
          22.38627,38.52231,0
          22.38623,38.52242,0
          22.38618,38.52292,0
          22.38616,38.52305,0
          22.38613,38.52312,0
          22.38613,38.52324,0
          22.38621,38.52374,0
          22.38622,38.52376,0
          22.38626,38.52392,0
          22.38638,38.52427,0
          22.38652,38.52461,0
          22.38736,38.52685,0
          22.38757,38.52733,0
          22.38763,38.52743,0
          22.38769,38.52755,0
          22.3877,38.52756,0
          22.38778,38.52769,0
          22.38779,38.52772,0
          22.38788,38.52785,0
          22.38808,38.52808,0
          22.38818,38.52814,0
          22.38825,38.5282,0
          22.38839,38.52834,0
          22.38872,38.52862,0
          22.38882,38.52872,0
          22.38884,38.52873,0
          22.38903,38.52887,0
          22.38934,38.52905,0
          22.38966,38.5292,0
          22.38979,38.52925,0
          22.3905,38.52948,0
          22.39056,38.52949,0
          22.39071,38.52953,0
          22.39072,38.52953,0
          22.39102,38.5296,0
          22.39139,38.52965,0
          22.39323,38.52981,0
          22.39346,38.52984,0
          22.39364,38.52985,0
          22.39387,38.52988,0
          22.39437,38.52991,0
          22.3946,38.52994,0
          22.39553,38.53002,0
          22.39699,38.53018,0
          22.39738,38.53021,0
          22.39757,38.53027,0
          22.39902,38.5304,0
          22.39925,38.53043,0
          22.40413,38.53084,0
          22.40514,38.53088,0
          22.40687,38.5309,0
          22.40799,38.53096,0
          22.40802,38.53097,0
          22.40882,38.53109,0
          22.40958,38.53126,0
          22.41052,38.53153,0
          22.41062,38.53157,0
          22.41073,38.5316,0
          22.41338,38.5326,0
          22.41351,38.53266,0
          22.41358,38.53268,0
          22.41378,38.53277,0
          22.41399,38.53285,0
          22.41419,38.53294,0
          22.4144,38.53302,0
          22.4148,38.5332,0
          22.41491,38.53324,0
          22.41615,38.5338,0
          22.41689,38.53416,0
          22.41697,38.53421,0
          22.41711,38.53428,0
          22.41748,38.53444,0
          22.41872,38.5349,0
          22.41881,38.53494,0
          22.41902,38.53501,0
          22.41902,38.53502,0
          22.42007,38.53539,0
          22.42027,38.53547,0
          22.42048,38.53554,0
          22.42065,38.53562,0
          22.42076,38.5357,0
          22.42082,38.53578,0
          22.42086,38.53586,0
          22.42088,38.53593,0
          22.42087,38.53595,0
          22.42087,38.536,0
          22.42085,38.53607,0
          22.42073,38.53621,0
          22.42065,38.53629,0
          22.42034,38.53651,0
          22.42028,38.53654,0
          22.42024,38.53655,0
          22.42022,38.53656,0
          22.42008,38.5366,0
          22.41957,38.5367,0
          22.41919,38.53675,0
          22.41897,38.53679,0
          22.41878,38.53681,0
          22.41875,38.53682,0
          22.41855,38.53685,0
          22.41842,38.53688,0
          22.41837,38.53688,0
          22.41821,38.53693,0
          22.4182,38.53694,0
          22.41807,38.53699,0
          22.418,38.53701,0
          22.418,38.53702,0
          22.41789,38.53706,0
          22.41744,38.53733,0
          22.41693,38.53767,0
          22.41688,38.53771,0
          22.41658,38.53791,0
          22.41622,38.53813,0
          22.41554,38.53858,0
          22.41529,38.53879,0
          22.41507,38.53901,0
          22.41495,38.53916,0
          22.41494,38.53916,0
          22.41483,38.53931,0
          22.4147,38.53946,0
          22.41446,38.53977,0
          22.41439,38.53985,0
          22.41434,38.53992,0
          22.414,38.54031,0
          22.41394,38.54036,0
          22.41389,38.54041,0
          22.41383,38.54046,0
          22.41361,38.54061,0
          22.41347,38.54069,0
          22.41262,38.54107,0
          22.4123,38.54123,0
          22.41224,38.54127,0
          22.41191,38.54144,0
          22.4113,38.54184,0
          22.40981,38.54289,0
          22.40981,38.5429,0
          22.40946,38.54313,0
          22.4093,38.54326,0
          22.40844,38.54386,0
          22.40842,38.54387,0
          22.40828,38.54398,0
          22.4081,38.5441,0
          22.40787,38.54428,0
          22.40779,38.54436,0
          22.40775,38.54439,0
          22.40767,38.54451,0
          22.40766,38.54452,0
          22.4076,38.54464,0
          22.40759,38.54468,0
          22.40758,38.5447,0
          22.40756,38.54477,0
          22.40754,38.54495,0
          22.40755,38.54501,0
          22.40755,38.54504,0
          22.40756,38.54511,0
          22.40762,38.54531,0
          22.40769,38.54563,0
          22.40775,38.54599,0
          22.40776,38.54617,0
          22.40775,38.54637,0
          22.4077,38.5467,0
          22.4077,38.54672,0
          22.40767,38.54688,0
          22.40766,38.54691,0
          22.40757,38.54745,0
          22.40755,38.54753,0
          22.40752,38.54771,0
          22.40748,38.54788,0
          22.40743,38.54818,0
          22.40736,38.54841,0
          22.40727,38.54877,0
          22.40703,38.54946,0
          22.40702,38.54951,0
          22.4068,38.55007,0
          22.40663,38.55055,0
          22.40662,38.55059,0
          22.40653,38.55085,0
          22.40651,38.55089,0
          22.40651,38.55103,0
          22.40654,38.55114,0
          22.40657,38.5512,0
          22.40659,38.55123,0
          22.40665,38.5513,0
          22.40671,38.55133,0
          22.40672,38.55134,0
          22.4068,38.55137,0
          22.4069,38.55139,0
          22.40702,38.5514,0
          22.40724,38.55137,0
          22.40759,38.55122,0
          22.40778,38.55116,0
          22.40779,38.55115,0
          22.408,38.55112,0
          22.40808,38.55112,0
          22.40821,38.55111,0
          22.40823,38.55112,0
          22.40844,38.55115,0
          22.40846,38.55116,0
          22.40889,38.55128,0
          22.40955,38.55143,0
          22.40958,38.55144,0
          22.4097,38.55144,0
          22.40982,38.55141,0
          22.40999,38.55134,0
          22.41016,38.55123,0
          22.41061,38.55086,0
          22.41067,38.55079,0
          22.41081,38.55065,0
          22.41081,38.55064,0
          22.41099,38.55054,0
          22.411,38.55053,0
          22.4112,38.55047,0
          22.4114,38.55044,0
          22.41155,38.55045,0
          22.41166,38.55047,0
          22.41168,38.55047,0
          22.41177,38.55052,0
          22.41192,38.55063,0
          22.41238,38.55115,0
          22.41262,38.55146,0
          22.41288,38.55175,0
          22.41298,38.55182,0
          22.41317,38.5519,0
          22.41318,38.55191,0
          22.41348,38.55201,0
          22.4136,38.55206,0
          22.4137,38.55207,0
          22.41378,38.55209,0
          22.41393,38.5521,0
          22.41416,38.55209,0
          22.41461,38.55203,0
          22.41464,38.55203,0
          22.41481,38.552,0
          22.41483,38.55199,0
          22.41492,38.55196,0
          22.41503,38.5519,0
          22.41516,38.55175,0
          22.41528,38.55163,0
          22.41529,38.55161,0
          22.41553,38.5513,0
          22.41564,38.55114,0
          22.41577,38.55099,0
          22.41587,38.55086,0
          22.41603,38.55068,0
          22.41639,38.55039,0
          22.41652,38.55033,0
          22.41658,38.55031,0
          22.41665,38.55031,0
          22.41671,38.55032,0
          22.41676,38.55034,0
          22.4168,38.55037,0
          22.41682,38.5504,0
          22.41683,38.55043,0
          22.41683,38.55052,0
          22.41682,38.55056,0
          22.41679,38.5506,0
          22.41675,38.55063,0
          22.4167,38.55066,0
          22.41652,38.55074,0
          22.41626,38.55088,0
          22.41613,38.55097,0
          22.41604,38.55105,0
          22.41603,38.55107,0
          22.41595,38.55117,0
          22.41565,38.55172,0
          22.41563,38.55178,0
          22.41542,38.55214,0
          22.41542,38.55215,0
          22.41532,38.5523,0
          22.4152,38.55241,0
          22.41512,38.55245,0
          22.41506,38.55249,0
          22.41493,38.55255,0
          22.41491,38.55255,0
          22.4145,38.55268,0
          22.41385,38.55286,0
          22.41362,38.55288,0
          22.41343,38.55291,0
          22.41323,38.5529,0
          22.41273,38.55279,0
          22.41267,38.55277,0
          22.41251,38.55275,0
          22.41243,38.55273,0
          22.41168,38.55268,0
          22.41135,38.55269,0
          22.41114,38.55272,0
          22.41092,38.55278,0
          22.41052,38.55293,0
          22.41051,38.55294,0
          22.40927,38.55341,0
          22.40899,38.55353,0
          22.40887,38.55359,0
          22.40886,38.55359,0
          22.40848,38.55378,0
          22.40791,38.55409,0
          22.40773,38.5542,0
          22.40764,38.55424,0
          22.40762,38.55426,0
          22.40755,38.55431,0
          22.40751,38.55433,0
          22.40739,38.55444,0
          22.40715,38.55475,0
          22.40705,38.55485,0
          22.40684,38.55502,0
          22.40682,38.55504,0
          22.40556,38.5559,0
          22.40548,38.55598,0
          22.40532,38.55611,0
          22.40518,38.55625,0
          22.40513,38.55629,0
          22.40476,38.55668,0
          22.40463,38.55683,0
          22.40449,38.55697,0
          22.40449,38.55698,0
          22.40438,38.55713,0
          22.40434,38.55717,0
          22.40419,38.55743,0
          22.40411,38.5576,0
          22.40407,38.55773,0
          22.40406,38.55801,0
          22.40405,38.55811,0
          22.40402,38.55817,0
          22.40397,38.55824,0
          22.40377,38.55837,0
          22.40376,38.55837,0
          22.40363,38.55846,0
          22.40357,38.55852,0
          22.40352,38.55856,0
          22.40345,38.55867,0
          22.40344,38.55868,0
          22.40337,38.55884,0
          22.40328,38.559,0
          22.40325,38.55909,0
          22.40319,38.55917,0
          22.40315,38.55924,0
          22.40299,38.5594,0
          22.4028,38.55956,0
          22.40276,38.55958,0
          22.40269,38.55964,0
          22.40251,38.55976,0
          22.40227,38.55996,0
          22.40213,38.5601,0
          22.40211,38.56014,0
          22.4021,38.56024,0
          22.40211,38.56027,0
          22.40212,38.56032,0
          22.40214,38.56034,0
          22.40221,38.56039,0
          22.40224,38.5604,0
          22.40232,38.56041,0
          22.40237,38.56041,0
          22.40243,38.56039,0
          22.40259,38.56026,0
          22.40286,38.55987,0
          22.40344,38.55923,0
          22.40366,38.55889,0
          22.40366,38.55888,0
          22.40377,38.55877,0
          22.40381,38.55875,0
          22.4039,38.55869,0
          22.404,38.55865,0
          22.40406,38.55862,0
          22.40421,38.55858,0
          22.40444,38.55848,0
          22.40453,38.55842,0
          22.40457,38.55837,0
          22.4046,38.55832,0
          22.4046,38.55831,0
          22.40466,38.55815,0
          22.40466,38.55814,0
          22.40473,38.55798,0
          22.40484,38.55786,0
          22.40505,38.5577,0
          22.40544,38.55744,0
          22.40556,38.55735,0
          22.4056,38.55731,0
          22.40589,38.5571,0
          22.40593,38.55706,0
          22.40596,38.55704,0
          22.40614,38.55697,0
          22.40626,38.55694,0
          22.40629,38.55694,0
          22.40632,38.55695,0
          22.40638,38.55696,0
          22.40644,38.557,0
          22.40646,38.55703,0
          22.40647,38.55704,0
          22.40649,38.55707,0
          22.4065,38.55711,0
          22.4065,38.55715,0
          22.40649,38.55722,0
          22.40647,38.55726,0
          22.40644,38.55729,0
          22.40634,38.55735,0
          22.406,38.55759,0
          22.40598,38.5576,0
          22.40572,38.55787,0
          22.40572,38.55788,0
          22.4056,38.55803,0
          22.40555,38.55808,0
          22.40472,38.55909,0
          22.4043,38.55956,0
          22.40397,38.55999,0
          22.40393,38.56003,0
          22.40352,38.56062,0
          22.40334,38.5609,0
          22.40291,38.56149,0
          22.40282,38.5616,0
          22.40239,38.56196,0
          22.40224,38.5621,0
          22.40177,38.56249,0
          22.40174,38.56251,0
          22.40173,38.56253,0
          22.40162,38.56263,0
          22.40162,38.56264,0
          22.40158,38.56267,0
          22.40133,38.56291,0
          22.4013,38.56295,0
          22.40122,38.56302,0
          22.4012,38.56305,0
          22.4012,38.56306,0
          22.40117,38.56314,0
          22.40118,38.5632,0
          22.40118,38.56322,0
          22.40125,38.56329,0
          22.40132,38.56333,0
          22.40142,38.56335,0
          22.40146,38.56335,0
          22.4015,38.56333,0
          22.40154,38.56332,0
          22.40156,38.56331,0
          22.40157,38.56329,0
          22.40161,38.56326,0
          22.40172,38.56314,0
          22.40182,38.56299,0
          22.40184,38.56297,0
          22.40205,38.56269,0
          22.40206,38.56269,0
          22.40219,38.56254,0
          22.40236,38.56241,0
          22.40255,38.56231,0
          22.40283,38.56218,0
          22.40316,38.56206,0
          22.40336,38.56197,0
          22.40351,38.56187,0
          22.40353,38.56185,0
          22.40363,38.56172,0
          22.40365,38.5617,0
          22.40376,38.56154,0
          22.40415,38.56104,0
          22.40425,38.56093,0
          22.40484,38.56053,0
          22.40488,38.56051,0
          22.40494,38.56045,0
          22.40503,38.56038,0
          22.40516,38.56022,0
          22.40525,38.56008,0
          22.40546,38.55966,0
          22.40548,38.55961,0
          22.40553,38.55953,0
          22.40562,38.55946,0
          22.40567,38.55943,0
          22.40573,38.55941,0
          22.40581,38.55941,0
          22.40587,38.55943,0
          22.40594,38.55949,0
          22.406,38.5596,0
          22.406,38.55966,0
          22.40598,38.55971,0
          22.40595,38.55976,0
          22.40578,38.55998,0
          22.40498,38.56086,0
          22.40473,38.56116,0
          22.40453,38.56145,0
          22.40452,38.56148,0
          22.40442,38.56164,0
          22.4044,38.56169,0
          22.40426,38.5619,0
          22.40413,38.56207,0
          22.40408,38.56211,0
          22.40395,38.56225,0
          22.40394,38.56225,0
          22.40377,38.56242,0
          22.40326,38.56282,0
          22.40319,38.56289,0
          22.40306,38.56308,0
          22.4029,38.56334,0
          22.40278,38.56357,0
          22.40268,38.56372,0
          22.40267,38.56373,0
          22.40256,38.56388,0
          22.40255,38.56388,0
          22.40245,38.56401,0
          22.40192,38.56463,0
          22.40157,38.56507,0
          22.40155,38.56509,0
          22.40119,38.56555,0
          22.40105,38.56569,0
          22.40088,38.56581,0
          22.40081,38.56583,0
          22.40067,38.56589,0
          22.40051,38.56594,0
          22.40024,38.566,0
          22.40023,38.566,0
          22.3999,38.5661,0
          22.39977,38.56616,0
          22.39964,38.56624,0
          22.39951,38.56634,0
          22.39942,38.56643,0
          22.39929,38.5666,0
          22.39924,38.56669,0
          22.39919,38.56676,0
          22.39914,38.56685,0
          22.39886,38.56743,0
          22.39881,38.56751,0
          22.39872,38.56768,0
          22.39867,38.56776,0
          22.39858,38.56793,0
          22.39836,38.56824,0
          22.39826,38.5684,0
          22.39786,38.56898,0
          22.39782,38.56903,0
          22.39776,38.56909,0
          22.39776,38.5691,0
          22.39765,38.5692,0
          22.39751,38.5693,0
          22.39719,38.56944,0
          22.397,38.56954,0
          22.39698,38.56956,0
          22.39695,38.56958,0
          22.39683,38.56969,0
          22.39679,38.56976,0
          22.39673,38.56993,0
          22.39672,38.57004,0
          22.39672,38.57011,0
          22.39674,38.57039,0
          22.39674,38.57047,0
          22.39679,38.5707,0
          22.39684,38.57081,0
          22.39685,38.57082,0
          22.39685,38.57083,0
          22.3969,38.57096,0
          22.3969,38.57098,0
          22.39691,38.57099,0
          22.39692,38.57107,0
          22.39692,38.57118,0
          22.39688,38.57151,0
          22.39687,38.57153,0
          22.39687,38.5716,0
          22.3968,38.5724,0
          22.39679,38.57243,0
          22.39678,38.57253,0
          22.39676,38.5726,0
          22.39674,38.57264,0
          22.39673,38.57267,0
          22.39669,38.57274,0
          22.39668,38.57275,0
          22.39667,38.57277,0
          22.39633,38.57324,0
          22.39631,38.57328,0
          22.39613,38.57353,0
          22.39604,38.57363,0
          22.39596,38.57369,0
          22.39594,38.57371,0
          22.39582,38.57379,0
          22.39578,38.5738,0
          22.39568,38.57385,0
          22.3954,38.57397,0
          22.39538,38.57397,0
          22.39535,38.57399,0
          22.39517,38.57406,0
          22.39516,38.57406,0
          22.39436,38.57439,0
          22.39412,38.57453,0
          22.39402,38.57463,0
          22.39396,38.57473,0
          22.39393,38.57484,0
          22.39393,38.57494,0
          22.39394,38.57498,0
          22.39396,38.57503,0
          22.39399,38.57514,0
          22.394,38.57515,0
          22.3942,38.57552,0
          22.39424,38.57563,0
          22.39425,38.57574,0
          22.3942,38.57595,0
          22.39403,38.5764,0
          22.39369,38.57711,0
          22.39363,38.57728,0
          22.3936,38.57743,0
          22.39358,38.57762,0
          22.39358,38.57796,0
          22.39351,38.57811,0
          22.39332,38.57841,0
          22.39299,38.57888,0
          22.39289,38.57904,0
          22.39283,38.57919,0
          22.39283,38.57922,0
          22.39281,38.5794,0
          22.39277,38.58006,0
          22.39275,38.58019,0
          22.39271,38.58026,0
          22.39269,38.58028,0
          22.39269,38.5803,0
          22.39268,38.58031,0
          22.39256,38.58051,0
          22.39244,38.58076,0
          22.39238,38.58095,0
          22.39238,38.58103,0
          22.39237,38.58112,0
          22.39239,38.5813,0
          22.39246,38.58146,0
          22.39255,38.5816,0
          22.39264,38.5817,0
          22.39273,38.58178,0
          22.39295,38.58195,0
          22.39305,38.58204,0
          22.39308,38.58211,0
          22.3931,38.58214,0
          22.39311,38.58217,0
          22.39311,38.58221,0
          22.39309,38.58229,0
          22.39303,38.58239,0
          22.39298,38.58244,0
          22.39283,38.58263,0
          22.3928,38.58266,0
          22.39262,38.58289,0
          22.39256,38.58295,0
          22.39246,38.58303,0
          22.39235,38.5831,0
          22.39168,38.58339,0
          22.39167,38.5834,0
          22.3915,38.5835,0
          22.39135,38.58363,0
          22.39134,38.58365,0
          22.39125,38.58377,0
          22.39117,38.5839,0
          22.39111,38.58403,0
          22.39075,38.58519,0
          22.39073,38.58524,0
          22.39041,38.58629,0
          22.39035,38.58646,0
          22.3903,38.58653,0
          22.39022,38.58661,0
          22.39021,38.58661,0
          22.39012,38.58668,0
          22.38978,38.58686,0
          22.38975,38.58687,0
          22.38961,38.58696,0
          22.38948,38.58707,0
          22.38886,38.58784,0
          22.38869,38.58801,0
          22.38856,38.5881,0
          22.38851,38.58812,0
          22.38832,38.58822,0
          22.38796,38.58845,0
          22.38759,38.58882,0
          22.38749,38.5889,0
          22.38737,38.58898,0
          22.38736,38.58899,0
          22.38676,38.58926,0
          22.38668,38.58929,0
          22.38618,38.58954,0
          22.38599,38.58965,0
          22.38569,38.58987,0
          22.38456,38.59102,0
          22.38453,38.59106,0
          22.38417,38.59142,0
          22.38396,38.5917,0
          22.38373,38.59195,0
          22.38366,38.59201,0
          22.38352,38.59215,0
          22.38338,38.59225,0
          22.38334,38.59227,0
          22.38317,38.59233,0
          22.38315,38.59233,0
          22.38313,38.59234,0
          22.38293,38.59238,0
          22.38283,38.59239,0
          22.38269,38.59245,0
          22.38263,38.59247,0
          22.38252,38.59255,0
          22.38251,38.59255,0
          22.38244,38.59261,0
          22.38237,38.59269,0
          22.38236,38.59271,0
          22.38226,38.59285,0
          22.38225,38.59286,0
          22.38214,38.59308,0
          22.38208,38.59329,0
          22.38207,38.59337,0
          22.38205,38.59346,0
          22.38203,38.59365,0
          22.38204,38.59373,0
          22.38204,38.59377,0
          22.38207,38.59388,0
          22.38207,38.5939,0
          22.38227,38.59461,0
          22.38235,38.59496,0
          22.38234,38.59506,0
          22.38232,38.59512,0
          22.38228,38.59521,0
          22.38171,38.5959,0
          22.38156,38.59604,0
          22.38153,38.59606,0
          22.38137,38.59614,0
          22.38122,38.5962,0
          22.38086,38.59632,0
          22.38065,38.59641,0
          22.38062,38.59643,0
          22.3806,38.59645,0
          22.38056,38.59647,0
          22.38047,38.59653,0
          22.38039,38.5966,0
          22.38027,38.59669,0
          22.38025,38.59671,0
          22.38024,38.59673,0
          22.38014,38.59683,0
          22.38006,38.59696,0
          22.38003,38.59704,0
          22.38,38.5971,0
          22.37996,38.59736,0
          22.37995,38.5974,0
          22.37989,38.59756,0
          22.37988,38.59757,0
          22.37982,38.59767,0
          22.37973,38.59778,0
          22.37945,38.59798,0
          22.37943,38.59799,0
          22.37929,38.59811,0
          22.37903,38.59831,0
          22.37882,38.59851,0
          22.37877,38.59858,0
          22.37872,38.59867,0
          22.3787,38.59869,0
          22.37866,38.59884,0
          22.37865,38.59902,0
          22.37865,38.60005,0
          22.37864,38.6001,0
          22.37863,38.60028,0
          22.37856,38.60064,0
          22.37856,38.60065,0
          22.37843,38.60114,0
          22.37842,38.60116,0
          22.37837,38.60133,0
          22.37836,38.60134,0
          22.37831,38.60144,0
          22.37821,38.60156,0
          22.3781,38.60166,0
          22.37793,38.60174,0
          22.37753,38.60187,0
          22.37751,38.60188,0
          22.37608,38.60237,0
          22.37603,38.60238,0
          22.37595,38.60241,0
          22.37581,38.60244,0
          22.37537,38.60256,0
          22.37517,38.60263,0
          22.37461,38.60289,0
          22.37421,38.60313,0
          22.37406,38.60327,0
          22.37399,38.60332,0
          22.3738,38.60356,0
          22.37283,38.60493,0
          22.37276,38.60514,0
          22.37275,38.60516,0
          22.37274,38.60534,0
          22.37275,38.60542,0
          22.37277,38.60549,0
          22.37278,38.60555,0
          22.37282,38.60567,0
          22.37291,38.60582,0
          22.37321,38.6064,0
          22.37328,38.60652,0
          22.37349,38.60696,0
          22.37352,38.60701,0
          22.37354,38.60706,0
          22.37355,38.60707,0
          22.3739,38.60793,0
          22.374,38.60809,0
          22.37403,38.60816,0
          22.37409,38.60824,0
          22.37419,38.60833,0
          22.37431,38.60842,0
          22.37432,38.60842,0
          22.3744,38.60847,0
          22.37488,38.60869,0
          22.37525,38.60883,0
          22.37568,38.60897,0
          22.3759,38.60902,0
          22.37591,38.60902,0
          22.37612,38.60906,0
          22.37724,38.60921,0
          22.37726,38.60922,0
          22.37738,38.60924,0
          22.37747,38.60927,0
          22.37748,38.60927,0
          22.37767,38.60937,0
          22.37772,38.60942,0
          22.37774,38.60945,0
          22.37776,38.60949,0
          22.37777,38.6095,0
          22.37779,38.60954,0
          22.3778,38.60959,0
          22.3778,38.6097,0
          22.37779,38.60973,0
          22.37774,38.60983,0
          22.37767,38.60992,0
          22.37753,38.61006,0
          22.37672,38.61094,0
          22.37602,38.6116,0
          22.376,38.61163,0
          22.37583,38.61181,0
          22.37565,38.6121,0
          22.37556,38.61227,0
          22.37556,38.61228,0
          22.37547,38.61243,0
          22.37494,38.61343,0
          22.37448,38.61425,0
          22.3744,38.61442,0
          22.37422,38.61475,0
          22.37403,38.61506,0
          22.37402,38.61507,0
          22.37335,38.61602,0
          22.37323,38.61617,0
          22.37323,38.61619,0
          22.37312,38.61633,0
          22.37295,38.61658,0
          22.37286,38.61667,0
          22.37275,38.61674,0
          22.37271,38.61675,0
          22.37251,38.61683,0
          22.37232,38.61693,0
          22.37219,38.61705,0
          22.37218,38.61708,0
          22.37209,38.61724,0
          22.37202,38.61741,0
          22.37202,38.61743,0
          22.37191,38.61774,0
          22.37191,38.61776,0
          22.37184,38.61794,0
          22.37184,38.61795,0
          22.37178,38.61811,0
          22.37177,38.61812,0
          22.37176,38.61816,0
          22.37162,38.6185,0
          22.37149,38.6189,0
          22.37144,38.61911,0
          22.37144,38.61951,0
          22.37145,38.61959,0
          22.37143,38.61969,0
          22.37141,38.61987,0
          22.37133,38.62023,0
          22.37129,38.62055,0
          22.37128,38.62079,0
          22.37135,38.62143,0
          22.37136,38.62148,0
          22.37137,38.62162,0
          22.37138,38.62166,0
          22.37152,38.62291,0
          22.37155,38.62309,0
          22.37156,38.62311,0
          22.37161,38.62327,0
          22.37166,38.6234,0
          22.37167,38.62344,0
          22.37182,38.62377,0
          22.37182,38.62378,0
          22.37206,38.62431,0
          22.37213,38.62441,0
          22.37215,38.62445,0
          22.37227,38.6246,0
          22.37248,38.62483,0
          22.37287,38.62515,0
          22.37311,38.62532,0
          22.3733,38.62551,0
          22.37333,38.62555,0
          22.3734,38.62562,0
          22.37346,38.62575,0
          22.37347,38.62575,0
          22.37349,38.62581,0
          22.37351,38.62584,0
          22.37352,38.62587,0
          22.37355,38.62592,0
          22.37402,38.62767,0
          22.37405,38.62775,0
          22.37408,38.6278,0
          22.37416,38.62791,0
          22.37421,38.62796,0
          22.3743,38.62802,0
          22.37458,38.62815,0
          22.37486,38.62831,0
          22.37493,38.62838,0
          22.37502,38.62851,0
          22.37502,38.62855,0
          22.37504,38.6286,0
          22.37504,38.62866,0
          22.3751,38.62921,0
          22.37511,38.62926,0
          22.37511,38.6293,0
          22.3752,38.6296,0
          22.37531,38.62985,0
          22.37532,38.62993,0
          22.37533,38.62997,0
          22.37528,38.63028,0
          22.37528,38.63034,0
          22.3753,38.63044,0
          22.37536,38.63057,0
          22.37555,38.63076,0
          22.37571,38.63089,0
          22.37571,38.6309,0
          22.37582,38.631,0
          22.37588,38.63111,0
          22.37591,38.63121,0
          22.37592,38.6314,0
          22.37588,38.63184,0
          22.37588,38.63191,0
          22.37587,38.632,0
          22.37587,38.63205,0
          22.37588,38.63209,0
          22.3754,38.63214,0
          22.37535,38.63215,0
          22.37497,38.63226,0
          22.37466,38.63233,0
          22.37441,38.63235,0
          22.37388,38.63232,0
          22.37383,38.63233,0
          22.37371,38.63233,0
          22.37293,38.63245,0
          22.37281,38.63246,0
          22.37265,38.63246,0
          22.3723,38.63244,0
          22.37224,38.63242,0
          22.37213,38.63236,0
          22.37209,38.6323,0
          22.37208,38.6323,0
          22.37207,38.63223,0
          22.37208,38.6323,0
          22.37209,38.6323,0
          22.37213,38.63236,0
          22.37224,38.63242,0
          22.3723,38.63244,0
          22.37265,38.63246,0
          22.37281,38.63246,0
          22.37293,38.63245,0
          22.37371,38.63233,0
          22.37383,38.63233,0
          22.37388,38.63232,0
          22.37441,38.63235,0
          22.37466,38.63233,0
          22.37497,38.63226,0
          22.37535,38.63215,0
          22.3754,38.63214,0
          22.37588,38.63209,0
          22.37592,38.63226,0
          22.37598,38.63239,0
          22.37607,38.6325,0
          22.37613,38.63255,0
          22.37617,38.63257,0
          22.37631,38.63266,0
          22.37649,38.63276,0
          22.3765,38.63276,0
          22.3766,38.63283,0
          22.37666,38.63289,0
          22.37671,38.63295,0
          22.37676,38.63305,0
          22.37678,38.63318,0
          22.37678,38.63324,0
          22.37673,38.6334,0
          22.37673,38.63343,0
          22.37653,38.63392,0
          22.37647,38.63409,0
          22.37646,38.6341,0
          22.37646,38.63412,0
          22.37637,38.63436,0
          22.37635,38.63444,0
          22.37634,38.6346,0
          22.37637,38.63467,0
          22.37641,38.63473,0
          22.37646,38.63477,0
          22.37646,38.63478,0
          22.37659,38.63484,0
          22.37666,38.63486,0
          22.37682,38.63486,0
          22.3769,38.63483,0
          22.37695,38.63487,0
          22.37698,38.63488,0
          22.37699,38.63488,0
          22.37702,38.63489,0
          22.37714,38.63486,0
          22.3772,38.63482,0
          22.37777,38.63451,0
          22.37792,38.63446,0
          22.37798,38.63445,0
          22.378,38.63445,0
          22.37803,38.63444,0
          22.37821,38.63444,0
          22.37839,38.63445,0
          22.37867,38.63449,0
          22.37872,38.63449,0
          22.37887,38.63451,0
          22.37936,38.63451,0
          22.37959,38.6345,0
          22.37967,38.63452,0
          22.37976,38.63453,0
          22.37981,38.63455,0
          22.37988,38.63457,0
          22.38008,38.63469,0
          22.38027,38.63487,0
          22.38035,38.63498,0
          22.38042,38.63513,0
          22.38045,38.63525,0
          22.38045,38.63537,0
          22.38055,38.63626,0
          22.38058,38.63636,0
          22.38063,38.63646,0
          22.38069,38.63656,0
          22.38082,38.63672,0
          22.38092,38.63682,0
          22.38115,38.63701,0
          22.38141,38.63716,0
          22.38148,38.63719,0
          22.38167,38.6373,0
          22.38168,38.6373,0
          22.38185,38.63741,0
          22.382,38.63754,0
          22.38231,38.63784,0
          22.38242,38.63798,0
          22.38248,38.63808,0
          22.38252,38.63816,0
          22.38254,38.63825,0
          22.38254,38.63834,0
          22.38252,38.63841,0
          22.38247,38.63848,0
          22.38229,38.63869,0
          22.38224,38.63877,0
          22.3822,38.63886,0
          22.38217,38.63896,0
          22.38217,38.63897,0
          22.38215,38.63905,0
          22.38217,38.63927,0
          22.38221,38.6395,0
          22.38224,38.63962,0
          22.38232,38.63985,0
          22.38235,38.63992,0
          22.38237,38.63994,0
          22.38244,38.64004,0
          22.3825,38.64009,0
          22.38268,38.6402,0
          22.38286,38.64029,0
          22.38288,38.64029,0
          22.38314,38.64039,0
          22.38335,38.6405,0
          22.38342,38.64055,0
          22.38345,38.64058,0
          22.38356,38.64074,0
          22.38383,38.64103,0
          22.384,38.64115,0
          22.38401,38.64115,0
          22.38437,38.64137,0
          22.38451,38.64148,0
          22.38462,38.64159,0
          22.38466,38.64165,0
          22.38493,38.64193,0
          22.38494,38.64193,0
          22.38524,38.6422,0
          22.38537,38.6423,0
          22.38542,38.64232,0
          22.38555,38.6424,0
          22.38585,38.64271,0
          22.38587,38.64272,0
          22.38603,38.64285,0
          22.38611,38.64294,0
          22.38612,38.64294,0
          22.38623,38.64309,0
          22.38627,38.64317,0
          22.38633,38.64327,0
          22.38644,38.64341,0
          22.38661,38.64353,0
          22.38662,38.64354,0
          22.38673,38.6436,0
          22.38691,38.64367,0
          22.38699,38.64373,0
          22.38703,38.64375,0
          22.38716,38.64385,0
          22.38721,38.6439,0
          22.38742,38.64417,0
          22.38745,38.6442,0
          22.38757,38.64437,0
          22.38763,38.64451,0
          22.38768,38.64471,0
          22.38768,38.64521,0
          22.38769,38.64523,0
          22.38769,38.64529,0
          22.3877,38.64539,0
          22.3877,38.64552,0
          22.38765,38.64574,0
          22.38764,38.64583,0
          22.38762,38.64592,0
          22.38761,38.64594,0
          22.38758,38.6461,0
          22.38757,38.64612,0
          22.38754,38.64628,0
          22.38753,38.6463,0
          22.38753,38.64632,0
          22.38748,38.64642,0
          22.38747,38.64645,0
          22.38745,38.64647,0
          22.38736,38.64659,0
          22.38734,38.6466,0
          22.38727,38.64666,0
          22.38713,38.64673,0
          22.38696,38.64679,0
          22.38671,38.64686,0
          22.38658,38.64696,0
          22.38652,38.64703,0
          22.38646,38.64712,0
          22.38644,38.64714,0
          22.38635,38.64728,0
          22.38633,38.6473,0
          22.38623,38.64743,0
          22.38621,38.64745,0
          22.38611,38.64759,0
          22.38601,38.64771,0
          22.38599,38.64774,0
          22.38561,38.64819,0
          22.38547,38.64833,0
          22.38541,38.6484,0
          22.38532,38.64847,0
          22.38517,38.64861,0
          22.38515,38.64862,0
          22.38501,38.64874,0
          22.38499,38.64875,0
          22.38486,38.64888,0
          22.38482,38.64893,0
          22.38469,38.64916,0
          22.38459,38.64937,0
          22.38459,38.64939,0
          22.38452,38.64954,0
          22.38446,38.64971,0
          22.38446,38.64974,0
          22.38443,38.64983,0
          22.38441,38.64993,0
          22.3844,38.65007,0
          22.38439,38.65013,0
          22.38438,38.65062,0
          22.38437,38.65073,0
          22.38435,38.65079,0
          22.38434,38.65086,0
          22.38426,38.65112,0
          22.38426,38.65114,0
          22.38418,38.65131,0
          22.38418,38.65133,0
          22.38402,38.65163,0
          22.38384,38.65185,0
          22.38374,38.6519,0
          22.38366,38.65193,0
          22.38349,38.65193,0
          22.3834,38.65192,0
          22.38314,38.65192,0
          22.38306,38.65193,0
          22.38288,38.65199,0
          22.38283,38.65202,0
          22.38282,38.65203,0
          22.38276,38.65207,0
          22.3827,38.65213,0
          22.38266,38.65219,0
          22.38263,38.65225,0
          22.38249,38.65259,0
          22.3824,38.65284,0
          22.38235,38.65293,0
          22.38232,38.653,0
          22.38231,38.65301,0
          22.38225,38.6531,0
          22.38219,38.65316,0
          22.38215,38.65321,0
          22.3819,38.65344,0
          22.38152,38.65371,0
          22.38146,38.65374,0
          22.38139,38.6538,0
          22.38131,38.65393,0
          22.38129,38.65401,0
          22.38128,38.65408,0
          22.38128,38.65419,0
          22.38131,38.65432,0
          22.38132,38.65434,0
          22.38136,38.6545,0
          22.38143,38.65467,0
          22.38148,38.65482,0
          22.38157,38.65501,0
          22.38176,38.65536,0
          22.38185,38.6555,0
          22.38185,38.65551,0
          22.38207,38.65578,0
          22.3821,38.6558,0
          22.38227,38.65595,0
          22.38234,38.65603,0
          22.38239,38.6561,0
          22.38242,38.65617,0
          22.38244,38.6563,0
          22.38242,38.65645,0
          22.38232,38.65689,0
          22.38219,38.65768,0
          22.38213,38.65796,0
          22.38209,38.65831,0
          22.38208,38.65835,0
          22.38205,38.65843,0
          22.38178,38.65875,0
          22.38166,38.65895,0
          22.38149,38.6592,0
          22.38146,38.65923,0
          22.38144,38.65927,0
          22.38134,38.65942,0
          22.38119,38.65968,0
          22.38102,38.66004,0
          22.38093,38.66018,0
          22.3809,38.66021,0
          22.38086,38.66031,0
          22.38082,38.66039,0
          22.38073,38.66067,0
          22.38073,38.66078,0
          22.38074,38.66082,0
          22.38076,38.66087,0
          22.38079,38.66091,0
          22.38086,38.66098,0
          22.38094,38.66104,0
          22.38105,38.66115,0
          22.38105,38.66116,0
          22.38108,38.66121,0
          22.38109,38.66127,0
          22.38109,38.66133,0
          22.38108,38.66141,0
          22.38101,38.66168,0
          22.381,38.66169,0
          22.38094,38.66181,0
          22.38088,38.6619,0
          22.38081,38.66197,0
          22.37992,38.66257,0
          22.37969,38.66275,0
          22.3795,38.66287,0
          22.37933,38.66296,0
          22.37919,38.66301,0
          22.37917,38.66302,0
          22.37878,38.66309,0
          22.3786,38.6631,0
          22.37792,38.66304,0
          22.37782,38.66302,0
          22.37737,38.66297,0
          22.37708,38.66292,0
          22.37692,38.66291,0
          22.37678,38.66292,0
          22.37669,38.66294,0
          22.37668,38.66295,0
          22.37662,38.66296,0
          22.37647,38.66303,0
          22.37633,38.66312,0
          22.37629,38.66314,0
          22.37618,38.66322,0
          22.37613,38.66327,0
          22.37607,38.66332,0
          22.37599,38.66341,0
          22.37589,38.66356,0
          22.37588,38.66357,0
          22.37582,38.66371,0
          22.37574,38.66399,0
          22.37574,38.66427,0
          22.37579,38.66459,0
          22.37579,38.66463,0
          22.37583,38.66493,0
          22.37583,38.66499,0
          22.37585,38.66517,0
          22.37585,38.66531,0
          22.37586,38.66535,0
          22.37586,38.6654,0
          22.3759,38.66553,0
          22.37604,38.66581,0
          22.37613,38.66602,0
          22.37613,38.66603,0
          22.37618,38.66621,0
          22.37618,38.66623,0
          22.37621,38.66639,0
          22.37622,38.66657,0
          22.37622,38.66685,0
          22.37618,38.66709,0
          22.37617,38.6671,0
          22.37615,38.66715,0
          22.37609,38.66724,0
          22.37606,38.66726,0
          22.37586,38.66751,0
          22.37574,38.66774,0
          22.37561,38.6679,0
          22.37546,38.66802,0
          22.37544,38.66804,0
          22.3748,38.66852,0
          22.37479,38.66853,0
          22.37465,38.66863,0
          22.37462,38.66864,0
          22.37455,38.66868,0
          22.37446,38.66872,0
          22.37424,38.66879,0
          22.37421,38.66879,0
          22.374,38.66886,0
          22.37378,38.66892,0
          22.37329,38.66902,0
          22.3724,38.66908,0
          22.3722,38.66913,0
          22.37158,38.66938,0
          22.37141,38.66949,0
          22.37127,38.66964,0
          22.37117,38.66978,0
          22.37115,38.66979,0
          22.37109,38.66986,0
          22.37096,38.66996,0
          22.37059,38.67009,0
          22.37038,38.67019,0
          22.37024,38.67028,0
          22.37021,38.67029,0
          22.37013,38.67034,0
          22.36981,38.67044,0
          22.3698,38.67044,0
          22.3696,38.6705,0
          22.36898,38.67078,0
          22.36859,38.67092,0
          22.36857,38.67093,0
          22.3684,38.67098,0
          22.36829,38.671,0
          22.36812,38.67101,0
          22.36808,38.67102,0
          22.36689,38.67107,0
          22.36661,38.67107,0
          22.36643,38.67109,0
          22.36638,38.6711,0
          22.36622,38.67116,0
          22.36622,38.67117,0
          22.36615,38.67124,0
          22.36611,38.67131,0
          22.36611,38.67132,0
          22.36607,38.67144,0
          22.36606,38.67149,0
          22.36598,38.67176,0
          22.36593,38.67184,0
          22.36586,38.67191,0
          22.36569,38.67204,0
          22.36561,38.67209,0
          22.36529,38.67225,0
          22.36515,38.67231,0
          22.36501,38.67236,0
          22.36479,38.67242,0
          22.36422,38.67252,0
          22.36412,38.67253,0
          22.36389,38.67257,0
          22.36381,38.67259,0
          22.36369,38.67263,0
          22.36368,38.67263,0
          22.36348,38.67273,0
          22.36312,38.67295,0
          22.36295,38.67307,0
          22.36279,38.67317,0
          22.36276,38.67318,0
          22.36256,38.67327,0
          22.36247,38.6733,0
          22.36236,38.67335,0
          22.36188,38.6736,0
          22.36179,38.67366,0
          22.36177,38.67367,0
          22.36165,38.67377,0
          22.36094,38.67451,0
          22.36094,38.67452,0
          22.3608,38.67466,0
          22.36055,38.67487,0
          22.3605,38.67489,0
          22.35975,38.67528,0
          22.35973,38.67528,0
          22.35954,38.67538,0
          22.35934,38.67547,0
          22.35913,38.67554,0
          22.35897,38.67558,0
          22.35891,38.67559,0
          22.35868,38.67558,0
          22.35851,38.67553,0
          22.35818,38.6754,0
          22.3576,38.67527,0
          22.35748,38.67525,0
          22.35721,38.67526,0
          22.35715,38.67527,0
          22.357,38.67531,0
          22.35692,38.67532,0
          22.35678,38.67536,0
          22.3563,38.67554,0
          22.3562,38.67561,0
          22.35615,38.67567,0
          22.35615,38.67568,0
          22.3561,38.67575,0
          22.35607,38.67585,0
          22.356,38.67602,0
          22.35585,38.67655,0
          22.35584,38.6766,0
          22.3558,38.67671,0
          22.35579,38.67672,0
          22.35572,38.67682,0
          22.35563,38.6769,0
          22.35548,38.67697,0
          22.35548,38.67698,0
          22.35537,38.67701,0
          22.35526,38.67703,0
          22.35523,38.67704,0
          22.35512,38.67705,0
          22.35491,38.67705,0
          22.35412,38.67697,0
          22.35392,38.67692,0
          22.35384,38.67688,0
          22.35373,38.67681,0
          22.35364,38.67673,0
          22.35331,38.67637,0
          22.35322,38.67626,0
          22.35316,38.67623,0
          22.35313,38.6762,0
          22.35306,38.67618,0
          22.35295,38.67618,0
          22.3528,38.6762,0
          22.35273,38.67622,0
          22.3525,38.67625,0
          22.35228,38.67629,0
          22.35213,38.67633,0
          22.35212,38.67634,0
          22.35203,38.67637,0
          22.35181,38.67651,0
          22.35158,38.67674,0
          22.35145,38.67689,0
          22.35131,38.67703,0
          22.35118,38.67718,0
          22.35112,38.67724,0
          22.35108,38.67727,0
          22.35098,38.67737,0
          22.35087,38.67745,0
          22.35066,38.67755,0
          22.35046,38.6776,0
          22.35034,38.67762,0
          22.35002,38.67771,0
          22.34941,38.67793,0
          22.3492,38.67803,0
          22.34901,38.67814,0
          22.3487,38.6783,0
          22.34869,38.6783,0
          22.34842,38.67841,0
          22.34813,38.67849,0
          22.34805,38.6785,0
          22.34801,38.67851,0
          22.34775,38.67851,0
          22.34752,38.67848,0
          22.34737,38.67845,0
          22.34729,38.67844,0
          22.34715,38.67841,0
          22.34707,38.6784,0
          22.34692,38.67837,0
          22.34685,38.67835,0
          22.34665,38.67832,0
          22.34645,38.67827,0
          22.34641,38.67825,0
          22.34634,38.67823,0
          22.34599,38.6781,0
          22.3459,38.67806,0
          22.34558,38.67796,0
          22.34557,38.67796,0
          22.34531,38.67785,0
          22.34517,38.67777,0
          22.34494,38.67766,0
          22.34477,38.67759,0
          22.34462,38.67756,0
          22.34445,38.67756,0
          22.34432,38.6776,0
          22.34429,38.6776,0
          22.344,38.67772,0
          22.34391,38.67775,0
          22.34357,38.67783,0
          22.34348,38.67786,0
          22.34307,38.67796,0
          22.34304,38.67796,0
          22.34292,38.67799,0
          22.34281,38.678,0
          22.34258,38.678,0
          22.34187,38.67797,0
          22.34172,38.67794,0
          22.34168,38.67791,0
          22.34159,38.67787,0
          22.3415,38.67779,0
          22.34148,38.67778,0
          22.34139,38.67769,0
          22.34135,38.67766,0
          22.34125,38.67756,0
          22.3411,38.67736,0
          22.34109,38.67733,0
          22.34103,38.67724,0
          22.34096,38.67718,0
          22.34088,38.67714,0
          22.34079,38.67711,0
          22.3407,38.6771,0
          22.34059,38.67707,0
          22.34052,38.67704,0
          22.34024,38.67681,0
          22.3402,38.67679,0
          22.34015,38.67675,0
          22.34009,38.67673,0
          22.34004,38.67673,0
          22.33999,38.67672,0
          22.33989,38.67672,0
          22.33981,38.67673,0
          22.33977,38.67674,0
          22.33961,38.67676,0
          22.33959,38.67677,0
          22.33916,38.67685,0
          22.33914,38.67686,0
          22.33849,38.67704,0
          22.33832,38.67706,0
          22.33826,38.67706,0
          22.33798,38.67711,0
          22.33791,38.67714,0
          22.33785,38.67719,0
          22.33784,38.67719,0
          22.33779,38.67725,0
          22.33773,38.67735,0
          22.33757,38.67755,0
          22.33746,38.67764,0
          22.33743,38.67767,0
          22.3373,38.67776,0
          22.33672,38.67811,0
          22.33661,38.67816,0
          22.33655,38.67817,0
          22.3365,38.67819,0
          22.33643,38.67819,0
          22.33632,38.67818,0
          22.33609,38.67814,0
          22.33606,38.67813,0
          22.33591,38.67811,0
          22.33582,38.67811,0
          22.33564,38.67815,0
          22.33541,38.67818,0
          22.33522,38.67817,0
          22.33519,38.67816,0
          22.3351,38.67815,0
          22.33499,38.67808,0
          22.33489,38.67798,0
          22.3348,38.67786,0
          22.33472,38.67779,0
          22.33466,38.67777,0
          22.33452,38.67774,0
          22.33437,38.67773,0
          22.33371,38.67773,0
          22.33353,38.67772,0
          22.33343,38.67769,0
          22.33332,38.67761,0
          22.33331,38.67759,0
          22.33318,38.6775,0
          22.33315,38.67749,0
          22.33301,38.67746,0
          22.33273,38.6775,0
          22.33247,38.6775,0
          22.33224,38.67752,0
          22.33219,38.67753,0
          22.33187,38.67749,0
          22.33141,38.67733,0
          22.33084,38.67719,0
          22.3306,38.67716,0
          22.33048,38.67717,0
          22.33025,38.67721,0
          22.33016,38.67724,0
          22.32997,38.67738,0
          22.32988,38.67741,0
          22.32979,38.67743,0
          22.32959,38.67743,0
          22.32942,38.67733,0
          22.32927,38.67715,0
          22.32921,38.67705,0
          22.32918,38.67701,0
          22.32915,38.67688,0
          22.32904,38.67653,0
          22.32904,38.67651,0
          22.32892,38.67637,0
          22.32872,38.67629,0
          22.3287,38.67629,0
          22.32849,38.67625,0
          22.32848,38.67625,0
          22.32827,38.67621,0
          22.32807,38.67622,0
          22.32785,38.67633,0
          22.32777,38.67636,0
          22.32748,38.67654,0
          22.32729,38.67664,0
          22.32711,38.67675,0
          22.32688,38.67696,0
          22.32663,38.67709,0
          22.32636,38.67711,0
          22.32614,38.67705,0
          22.32612,38.67704,0
          22.32561,38.67662,0
          22.32547,38.67656,0
          22.32526,38.67649,0
          22.32514,38.67644,0
          22.32496,38.67635,0
          22.32464,38.67625,0
          22.32444,38.67617,0
          22.3243,38.67602,0
          22.32399,38.67563,0
          22.32375,38.67547,0
          22.32374,38.67547,0
          22.32354,38.67537,0
          22.32351,38.67536,0
          22.32328,38.67531,0
          22.32309,38.67531,0
          22.32287,38.67534,0
          22.32283,38.67535,0
          22.32257,38.67536,0
          22.32241,38.67534,0
          22.32196,38.67526,0
          22.32129,38.67511,0
          22.32087,38.67504,0
          22.32084,38.67503,0
          22.32026,38.67502,0
          22.32,38.67508,0
          22.31976,38.67519,0
          22.31974,38.67519,0
          22.31954,38.67524,0
          22.31952,38.67524,0
          22.3192,38.67517,0
          22.31909,38.67512,0
          22.31866,38.67499,0
          22.31821,38.67489,0
          22.31724,38.67474,0
          22.31719,38.67474,0
          22.31682,38.67461,0
          22.31648,38.67446,0
          22.31641,38.67444,0
          22.31627,38.67442,0
          22.31602,38.67443,0
          22.3158,38.6745,0
          22.31561,38.6747,0
          22.31547,38.67482,0
          22.3154,38.67487,0
          22.31517,38.67494,0
          22.31506,38.67495,0
          22.31481,38.67495,0
          22.31446,38.67497,0
          22.31428,38.67499,0
          22.31418,38.67506,0
          22.31415,38.67509,0
          22.31407,38.67522,0
          22.31405,38.67524,0
          22.31392,38.67547,0
          22.31374,38.67565,0
          22.31349,38.67584,0
          22.3131,38.67609,0
          22.31266,38.67633,0
          22.31226,38.67643,0
          22.31195,38.67644,0
          22.31139,38.67643,0
          22.31119,38.67648,0
          22.31108,38.67658,0
          22.31104,38.67673,0
          22.31106,38.67687,0
          22.31109,38.67691,0
          22.31113,38.67698,0
          22.31135,38.6772,0
          22.31136,38.6772,0
          22.31156,38.67729,0
          22.31224,38.67748,0
          22.31241,38.67756,0
          22.31257,38.67765,0
          22.31258,38.67765,0
          22.31271,38.6778,0
          22.31271,38.67781,0
          22.31287,38.67797,0
          22.31372,38.6789,0
          22.31416,38.67942,0
          22.31449,38.67987,0
          22.31459,38.68006,0
          22.31481,38.68043,0
          22.31507,38.68079,0
          22.31574,38.68145,0
          22.31588,38.68153,0
          22.31596,38.68159,0
          22.3164,38.68169,0
          22.31663,38.68178,0
          22.31683,38.68198,0
          22.31698,38.68215,0
          22.31733,38.68239,0
          22.31905,38.6833,0
          22.31922,38.6834,0
          22.31937,38.68353,0
          22.31946,38.68368,0
          22.31952,38.68389,0
          22.31954,38.68435,0
          22.31953,38.68443,0
          22.31953,38.68449,0
          22.31951,38.68461,0
          22.31951,38.68467,0
          22.31953,38.68485,0
          22.31961,38.6852,0
          22.31961,38.68523,0
          22.31966,38.68556,0
          22.31967,38.68574,0
          22.31966,38.68582,0
          22.31961,38.68591,0
          22.3196,38.68594,0
          22.31929,38.68639,0
          22.31928,38.6864,0
          22.31902,38.6868,0
          22.31898,38.68688,0
          22.31892,38.68706,0
          22.31889,38.68722,0
          22.31888,38.68724,0
          22.31886,38.68753,0
          22.31889,38.68777,0
          22.31898,38.68801,0
          22.31904,38.68811,0
          22.31915,38.68827,0
          22.31934,38.68849,0
          22.3198,38.6889,0
          22.31986,38.68898,0
          22.31994,38.68906,0
          22.32009,38.68927,0
          22.32011,38.68928,0
          22.32023,38.68941,0
          22.32024,38.68943,0
          22.32033,38.68955,0
          22.32034,38.68959,0
          22.32038,38.6897,0
          22.32037,38.68976,0
          22.32037,38.68984,0
          22.32032,38.68994,0
          22.32021,38.69005,0
          22.3201,38.69011,0
          22.32,38.69013,0
          22.31935,38.69013,0
          22.31922,38.69016,0
          22.31915,38.69024,0
          22.31901,38.69074,0
          22.31889,38.69109,0
          22.31884,38.69132,0
          22.31887,38.69141,0
          22.31894,38.69151,0
          22.31918,38.69171,0
          22.31931,38.69186,0
          22.31937,38.69202,0
          22.31938,38.69229,0
          22.31948,38.69256,0
          22.31953,38.69274,0
          22.31957,38.69299,0
          22.31962,38.6931,0
          22.31964,38.69317,0
          22.31974,38.69342,0
          22.31974,38.69345,0
          22.31975,38.69351,0
          22.31972,38.69363,0
          22.31968,38.6937,0
          22.31962,38.69378,0
          22.31957,38.69383,0
          22.31944,38.6939,0
          22.31933,38.69398,0
          22.31929,38.69403,0
          22.31926,38.69408,0
          22.31917,38.69428,0
          22.31911,38.69436,0
          22.3191,38.69438,0
          22.31897,38.69448,0
          22.31884,38.69456,0
          22.31873,38.69467,0
          22.31866,38.69477,0
          22.31848,38.6951,0
          22.31846,38.69515,0
          22.31837,38.69525,0
          22.31836,38.69525,0
          22.31827,38.69532,0
          22.31818,38.69535,0
          22.31817,38.69535,0
          22.31806,38.69537,0
          22.31794,38.69537,0
          22.31779,38.69532,0
          22.31771,38.6953,0
          22.3176,38.69526,0
          22.31751,38.69526,0
          22.31741,38.6953,0
          22.31737,38.69533,0
          22.31732,38.69538,0
          22.31729,38.69547,0
          22.31727,38.69566,0
          22.31729,38.69585,0
          22.31733,38.69603,0
          22.31733,38.69605,0
          22.31741,38.6963,0
          22.31748,38.69656,0
          22.31748,38.69658,0
          22.3175,38.69669,0
          22.31748,38.69683,0
          22.31744,38.69699,0
          22.31737,38.69711,0
          22.31725,38.69723,0
          22.31725,38.69724,0
          22.3171,38.69736,0
          22.317,38.69748,0
          22.31693,38.69762,0
          22.31693,38.69797,0
          22.31691,38.6981,0
          22.31685,38.69822,0
          22.31678,38.69833,0
          22.31674,38.69843,0
          22.31674,38.69851,0
          22.31675,38.69856,0
          22.31676,38.69874,0
          22.31683,38.69937,0
          22.31683,38.69946,0
          22.31682,38.69955,0
          22.31678,38.69966,0
          22.31671,38.69975,0
          22.31658,38.69984,0
          22.3161,38.70009,0
          22.3157,38.70027,0
          22.31551,38.70037,0
          22.31474,38.70064,0
          22.31459,38.70068,0
          22.31448,38.70068,0
          22.31444,38.70067,0
          22.31433,38.70066,0
          22.31415,38.7006,0
          22.31402,38.70053,0
          22.31382,38.70044,0
          22.31363,38.70034,0
          22.31343,38.70025,0
          22.31324,38.70015,0
          22.31304,38.70006,0
          22.31283,38.69998,0
          22.31264,38.69989,0
          22.31256,38.69984,0
          22.31241,38.69972,0
          22.31225,38.69955,0
          22.31217,38.69949,0
          22.31213,38.69945,0
          22.31201,38.69936,0
          22.31188,38.6993,0
          22.31179,38.69929,0
          22.31168,38.69933,0
          22.31162,38.6994,0
          22.31162,38.69948,0
          22.31165,38.69956,0
          22.31165,38.69957,0
          22.31173,38.69973,0
          22.31177,38.69983,0
          22.31189,38.70025,0
          22.31188,38.70034,0
          22.31185,38.70044,0
          22.31183,38.70047,0
          22.31179,38.70057,0
          22.31175,38.70064,0
          22.31175,38.70065,0
          22.31173,38.70072,0
          22.31175,38.70082,0
          22.31176,38.70085,0
          22.31181,38.70095,0
          22.312,38.70125,0
          22.31209,38.70134,0
          22.31217,38.70138,0
          22.31223,38.7014,0
          22.31262,38.70146,0
          22.31284,38.70153,0
          22.31307,38.70167,0
          22.31324,38.70185,0
          22.31335,38.70202,0
          22.31351,38.70224,0
          22.31354,38.70229,0
          22.31399,38.70282,0
          22.31403,38.7029,0
          22.31411,38.70303,0
          22.31415,38.70318,0
          22.31417,38.70334,0
          22.31416,38.70342,0
          22.31414,38.70349,0
          22.31408,38.70365,0
          22.31407,38.70377,0
          22.31406,38.7038,0
          22.31408,38.70395,0
          22.31414,38.70412,0
          22.31434,38.70404,0
          22.31451,38.70393,0
          22.31465,38.70378,0
          22.31491,38.70343,0
          22.31507,38.70327,0
          22.31509,38.70324,0
          22.31522,38.70314,0
          22.31527,38.70309,0
          22.31561,38.70294,0
          22.31566,38.70293,0
          22.31607,38.7028,0
          22.31648,38.70272,0
          22.31664,38.70268,0
          22.31671,38.70268,0
          22.31721,38.70261,0
          22.31783,38.70258,0
          22.31831,38.70258,0
          22.3187,38.70261,0
          22.31877,38.70263,0
          22.31908,38.70269,0
          22.31931,38.70281,0
          22.31953,38.70299,0
          22.31957,38.70303,0
          22.31975,38.70314,0
          22.32008,38.70332,0
          22.32013,38.70334,0
          22.32028,38.70342,0
          22.32029,38.70342,0
          22.32084,38.70373,0
          22.32135,38.70409,0
          22.32137,38.7041,0
          22.32151,38.70422,0
          22.32154,38.70424,0
          22.32165,38.70436,0
          22.32188,38.70458,0
          22.32222,38.70487,0
          22.3224,38.705,0
          22.32263,38.7051,0
          22.32264,38.70511,0
          22.32373,38.7054,0
          22.32408,38.70552,0
          22.32434,38.70564,0
          22.32435,38.70564,0
          22.32453,38.70575,0
          22.32463,38.7058,0
          22.325,38.70602,0
          22.32516,38.70609,0
          22.32529,38.70612,0
          22.3254,38.70612,0
          22.32553,38.70608,0
          22.32578,38.70597,0
          22.32595,38.70595,0
          22.32597,38.70594,0
          22.32618,38.70596,0
          22.32625,38.70596,0
          22.32648,38.70604,0
          22.3266,38.7061,0
          22.32672,38.70617,0
          22.32684,38.70631,0
          22.32688,38.70637,0
          22.32691,38.70643,0
          22.32695,38.70659,0
          22.32695,38.70673,0
          22.32694,38.70687,0
          22.32683,38.70723,0
          22.32672,38.70744,0
          22.32661,38.70757,0
          22.32659,38.70758,0
          22.32611,38.70811,0
          22.32583,38.70834,0
          22.32573,38.7084,0
          22.32569,38.70843,0
          22.32555,38.70848,0
          22.32553,38.70849,0
          22.32533,38.70851,0
          22.32507,38.70849,0
          22.32462,38.70841,0
          22.32441,38.70834,0
          22.32439,38.70834,0
          22.32418,38.7083,0
          22.32409,38.70829,0
          22.32395,38.70829,0
          22.32376,38.70834,0
          22.32373,38.70834,0
          22.32342,38.70846,0
          22.32327,38.70854,0
          22.32319,38.70864,0
          22.32319,38.70865,0
          22.32313,38.70877,0
          22.32311,38.70887,0
          22.32311,38.70945,0
          22.3231,38.7096,0
          22.3231,38.70978,0
          22.32312,38.70996,0
          22.32312,38.70999,0
          22.32317,38.71013,0
          22.32318,38.71019,0
          22.32335,38.71051,0
          22.32352,38.71079,0
          22.32371,38.71099,0
          22.324,38.71127,0
          22.32405,38.71135,0
          22.32409,38.7114,0
          22.32416,38.71156,0
          22.3242,38.71168,0
          22.32442,38.71298,0
          22.32448,38.7132,0
          22.32452,38.71326,0
          22.32454,38.7133,0
          22.32466,38.71343,0
          22.32528,38.71387,0
          22.32533,38.71392,0
          22.32563,38.71416,0
          22.32566,38.71417,0
          22.32583,38.71428,0
          22.32584,38.71429,0
          22.32603,38.71439,0
          22.32621,38.71454,0
          22.32627,38.71468,0
          22.32628,38.71469,0
          22.32631,38.71483,0
          22.32632,38.71511,0
          22.32631,38.71522,0
          22.32631,38.71528,0
          22.32627,38.71554,0
          22.32627,38.71558,0
          22.32626,38.71566,0
          22.32631,38.71612,0
          22.32629,38.71638,0
          22.32629,38.71647,0
          22.32628,38.71659,0
          22.32633,38.71683,0
          22.32638,38.71699,0
          22.32639,38.717,0
          22.32649,38.71717,0
          22.32676,38.71746,0
          22.32679,38.71748,0
          22.32687,38.71761,0
          22.32689,38.71779,0
          22.32687,38.71797,0
          22.32687,38.71801,0
          22.32682,38.71815,0
          22.32678,38.71829,0
          22.32676,38.71832,0
          22.32662,38.71866,0
          22.32657,38.71883,0
          22.32658,38.71905,0
          22.32668,38.71927,0
          22.32675,38.71935,0
          22.32702,38.71961,0
          22.32705,38.71962,0
          22.32719,38.7197,0
          22.3278,38.71992,0
          22.32806,38.72004,0
          22.32851,38.72029,0
          22.32905,38.7205,0
          22.32926,38.72065,0
          22.32936,38.72077,0
          22.32945,38.72093,0
          22.32956,38.72121,0
          22.32965,38.72135,0
          22.32969,38.72143,0
          22.32979,38.7216,0
          22.32991,38.72185,0
          22.3301,38.72237,0
          22.33017,38.72245,0
          22.33024,38.7225,0
          22.33035,38.72255,0
          22.3304,38.72256,0
          22.33082,38.72269,0
          22.33083,38.7227,0
          22.33099,38.72278,0
          22.33102,38.72279,0
          22.33196,38.72331,0
          22.33199,38.72334,0
          22.33213,38.72343,0
          22.33221,38.72349,0
          22.33236,38.72363,0
          22.33242,38.72371,0
          22.33252,38.72382,0
          22.33256,38.72385,0
          22.33277,38.72406,0
          22.33292,38.72419,0
          22.33317,38.72434,0
          22.33383,38.72467,0
          22.33418,38.72491,0
          22.33436,38.72502,0
          22.33446,38.72509,0
          22.33452,38.72515,0
          22.33475,38.72534,0
          22.33494,38.72552,0
          22.33515,38.72569,0
          22.33548,38.72592,0
          22.33596,38.72631,0
          22.33599,38.72634,0
          22.33612,38.72644,0
          22.33614,38.72647,0
          22.33631,38.72653,0
          22.33691,38.72681,0
          22.33692,38.72682,0
          22.33708,38.72693,0
          22.33715,38.72697,0
          22.33738,38.7272,0
          22.33762,38.72751,0
          22.33779,38.72776,0
          22.33792,38.72793,0
          22.33797,38.72797,0
          22.33812,38.72813,0
          22.33892,38.72875,0
          22.33899,38.72882,0
          22.33902,38.72891,0
          22.33903,38.72892,0
          22.33905,38.72919,0
          22.33902,38.72945,0
          22.33902,38.7295,0
          22.33893,38.72973,0
          22.33894,38.7298,0
          22.33898,38.72997,0
          22.33898,38.73,0
          22.33917,38.73024,0
          22.3392,38.73029,0
          22.33965,38.7308,0
          22.33974,38.73087,0
          22.33989,38.73101,0
          22.33993,38.73104,0
          22.34026,38.73122,0
          22.34054,38.73133,0
          22.34101,38.73159,0
          22.34269,38.73225,0
          22.3429,38.73232,0
          22.34497,38.73319,0
          22.34498,38.73319,0
          22.34539,38.73328,0
          22.3454,38.73328,0
          22.34582,38.73346,0
          22.34595,38.73364,0
          22.346,38.73377,0
          22.3461,38.73394,0
          22.34614,38.73403,0
          22.34616,38.73414,0
          22.34616,38.7342,0
          22.34617,38.73428,0
          22.34617,38.73447,0
          22.34618,38.73455,0
          22.34618,38.73474,0
          22.34616,38.73494,0
          22.34612,38.73508,0
          22.34607,38.73521,0
          22.34591,38.73549,0
          22.34585,38.73565,0
          22.34585,38.73578,0
          22.34592,38.73586,0
          22.34595,38.73588,0
          22.34611,38.73595,0
          22.34604,38.73638,0
          22.34591,38.73673,0
          22.34586,38.73706,0
          22.34586,38.73716,0
          22.34587,38.73721,0
          22.34596,38.73744,0
          22.34597,38.73749,0
          22.34597,38.73756,0
          22.34594,38.73763,0
          22.34585,38.73779,0
          22.34579,38.73787,0
          22.34577,38.73791,0
          22.34568,38.73799,0
          22.34555,38.73802,0
          22.34546,38.73807,0
          22.34545,38.73808,0
          22.34531,38.73812,0
          22.34523,38.73815,0
          22.34503,38.7382,0
          22.34497,38.73821,0
          22.34489,38.73825,0
          22.34485,38.73828,0
          22.34485,38.73829,0
          22.3446,38.73847,0
          22.34452,38.73852,0
          22.34449,38.73853,0
          22.34434,38.73856,0
          22.34426,38.73856,0
          22.34415,38.73857,0
          22.3438,38.73852,0
          22.34335,38.73848,0
          22.34324,38.73846,0
          22.34312,38.73846,0
          22.34291,38.73844,0
          22.34282,38.73844,0
          22.34243,38.73839,0
          22.3419,38.73827,0
          22.34176,38.73826,0
          22.34172,38.73825,0
          22.34131,38.7383,0
          22.34085,38.73831,0
          22.34084,38.7383,0
          22.34042,38.7383,0
          22.34035,38.73831,0
          22.34029,38.73833,0
          22.34027,38.73835,0
          22.34025,38.73838,0
          22.34018,38.73852,0
          22.34018,38.73859,0
          22.34019,38.73866,0
          22.34023,38.73871,0
          22.34028,38.73875,0
          22.34029,38.73875,0
          22.34048,38.73886,0
          22.34073,38.73906,0
          22.34078,38.73909,0
          22.34079,38.7391,0
          22.34094,38.73919,0
          22.34097,38.73919,0
          22.34099,38.7392,0
          22.3412,38.73924,0
          22.34126,38.73927,0
          22.34134,38.73934,0
          22.34139,38.73942,0
          22.34141,38.73959,0
          22.34145,38.73973,0
          22.34149,38.73979,0
          22.3415,38.73989,0
          22.34149,38.73992,0
          22.34145,38.73996,0
          22.34138,38.73998,0
          22.34125,38.74,0
          22.3411,38.74001,0
          22.34101,38.74005,0
          22.341,38.74004,0
          22.34093,38.74004,0
          22.34075,38.73999,0
          22.34073,38.73998,0
          22.34071,38.73994,0
          22.3407,38.73983,0
          22.34064,38.73967,0
          22.34057,38.73958,0
          22.34046,38.73956,0
          22.34043,38.73959,0
          22.34011,38.73979,0
          22.34003,38.73985,0
          22.33983,38.73992,0
          22.33967,38.74007,0
          22.33958,38.74011,0
          22.33942,38.74011,0
          22.33924,38.74009,0
          22.33909,38.74006,0
          22.33906,38.74007,0
          22.33903,38.74007,0
          22.33885,38.74015,0
          22.33871,38.7402,0
          22.33868,38.7402,0
          22.33862,38.74021,0
          22.3383,38.74019,0
          22.33793,38.7402,0
          22.33784,38.74024,0
          22.33776,38.74033,0
          22.3377,38.74037,0
          22.33759,38.74042,0
        </coordinates>
      </LineString>
    </Placemark>
    <Placemark>
      <name>Galaxidi</name>
      <styleUrl>#icon-1899-DB4436-nodesc</styleUrl>
      <Point>
        <coordinates>
          22.3831749,38.377337,0
        </coordinates>
      </Point>
    </Placemark>
    <Placemark>
      <name>Vagonetto, Amfissa</name>
      <styleUrl>#icon-1899-DB4436-nodesc</styleUrl>
      <Point>
        <coordinates>
          22.3720702,38.6322281,0
        </coordinates>
      </Point>
    </Placemark>
    <Placemark>
      <name>Pavliani</name>
      <styleUrl>#icon-1899-DB4436-nodesc</styleUrl>
      <Point>
        <coordinates>
          22.3375895,38.7404236,0
        </coordinates>
      </Point>
    </Placemark>
  </Document>
</kml>
